STARLINK-2728_new
1 18478C 21040BC  21326.18073925 -.00013491  00000-0 -90398-3 0  3263
2 18478  53.0563  32.9320 0001373  71.9957   8.5480 15.06409326    18
STARLINK-2728_old
1 28478C 21040BC  21325.11579228  .00004883  00000-0  32712-3 0  3250
2 28478  53.0569  37.7125 0001319  71.8128 350.2516 15.06402138    10
